ONEWEB-0228             
1 48780U 21045P   24119.86947490  .00000049  00000+0  96333-4 0  9993
2 48780  87.9038  54.2599 0001828  82.1421 277.9917 13.15549336141867
